0 EKRAN 2 DEB
1 29014U 77092K   13281.85424828 -.00000008  00000-0  10000-3 0  8809
2 29014 013.3517 331.6044 0018750 193.8281 166.1153 01.00146344 38166
0 EKRAN 2 DEB
1 29014U 77092K   13283.85123020 -.00000019  00000-0  10000-3 0  8814
2 29014 013.3500 331.5846 0018859 195.2665 164.6738 01.00147012 38186
0 EKRAN 2 DEB
1 29014U 77092K   13288.84360348 -.00000044  00000-0  10000-3 0  8823
2 29014 013.3461 331.5293 0020152 194.7629 165.1328 01.00147631 38235
0 EKRAN 2 DEB
1 29014U 77092K   13290.84060555 -.00000050  00000-0  10000-3 0  8831
2 29014 013.3434 331.5116 0019911 197.5626 162.3488 01.00148392 38251
0 EKRAN 2 DEB
1 29014U 77092K   13293.83598954 -.00000054  00000-0  10000-3 0  8847
2 29014 013.3410 331.4808 0019858 197.0513 162.8414 01.00148899 38281
